{"spkid": "50986705", "covariance": {"epoch": "2458951.5", "labels": ["e", "q", "tp", "node", "peri", "i"], "data": [["1.41960816464873E-15", "8.144566670542641E-17", "1.292911921609259E-13", "-5.83614038905988E-15", "1.542794756651674E-13", "7.796271664243998E-14"], ["8.144566670542641E-17", "8.652243636311237E-16", "4.357694192297929E-13", "5.008238807115165E-15", "5.812363237726513E-13", "-6.483185453124865E-14"], ["1.292911921609259E-13", "4.357694192297929E-13", "3.036105986356591E-10", "6.540945722134789E-15", "3.865690925677105E-10", "-1.24046140521106E-11"], ["-5.83614038905988E-15", "5.008238807115165E-15", "6.540945722134789E-15", "4.381328714688993E-12", "-3.034213672683459E-12", "-1.238338375263516E-11"], ["1.542794756651674E-13", "5.812363237726513E-13", "3.865690925677105E-10", "-3.034213672683459E-12", "5.001157594000215E-10", "-1.368966096289684E-11"], ["7.796271664243998E-14", "-6.483185453124865E-14", "-1.24046140521106E-11", "-1.238338375263516E-11", "-1.368966096289684E-11", "1.976082585444854E-10"]], "elements": [{"label": "e", "name": "e", "sigma": 3.76776878888385e-08, "units": null, "title": "eccentricity", "value": ".551946350339821"}, {"label": "q", "value": ".9691291306897627", "title": "perihelion distance", "units": "au", "name": "q", "sigma": 2.94146963885593e-08}, {"label": "tp", "sigma": 1.74244253459234e-05, "name": "tp", "units": "TDB", "value": "2458855.461239470874", "title": "time of perihelion passage"}, {"title": "longitude of the ascending node", "value": "294.4237363259118", "units": "deg", "sigma": 2.09316237179274e-06, "name": "om", "label": "node"}, {"name": "w", "sigma": 2.23632680840708e-05, "units": "deg", "title": "argument of perihelion", "value": "167.7210916614985", "label": "peri"}, {"label": "i", "title": "inclination", "value": "26.29447237117266", "units": "deg", "name": "i", "sigma": 1.4057320461044e-05}]}, "elements": [{"label": "e", "units": null, "title": "eccentricity", "value": ".5509635100006307", "sigma": "3.7142E-8", "name": "e"}, {"label": "a", "units": "au", "value": "2.164222812464324", "title": "semi-major axis", "sigma": "1.9685E-7", "name": "a"}, {"sigma": "3.1781E-8", "name": "q", "value": ".9718150152855435", "title": "perihelion distance", "units": "au", "label": "q"}, {"label": "i", "units": "deg", "title": "inclination; angle with respect to x-y ecliptic plane", "value": "26.26859787413166", "name": "i", "sigma": "1.4051E-5"}, {"units": "deg", "title": "longitude of the ascending node", "value": "294.3873323421627", "name": "om", "sigma": "2.0897E-6", "label": "node"}, {"label": "peri", "units": "deg", "value": "167.7542091680323", "title": "argument of perihelion", "name": "w", "sigma": "2.2448E-5"}, {"units": "deg", "title": "mean anomaly", "value": "5.983350182668487", "name": "ma", "sigma": ".0001024", "label": "M"}, {"label": "tp", "name": "tp", "sigma": ".00032815", "title": "time of perihelion passage", "value": "2461181.171715788514", "units": "TDB"}, {"label": "period", "sigma": ".00015866", "name": "per", "title": "sidereal orbital period", "value": "1162.924131749839", "units": "d"}, {"sigma": "4.2236E-8", "name": "n", "units": "deg/d", "title": "mean motion", "value": ".3095644764532592", "label": "n"}, {"label": "Q", "title": "aphelion distance", "value": "3.356630609643105", "units": "au", "sigma": "3.0531E-7", "name": "ad"}], "epoch": "2461200.5"}